CCSDS_OMM_VERS = 2.0
CREATION_DATE  = 
ORIGINATOR     = 

OBJECT_NAME    = ASTRO-H (HITOMI)
OBJECT_ID      = 2016-012A
CENTER_NAME    = EARTH
REF_FRAME      = TEME
TIME_SYSTEM    = UTC
MEAN_ELEMENT_THEORY = SGP/SGP4

EPOCH          = 2026-02-15T14:53:46.203360
MEAN_MOTION    = 15.09842114
ECCENTRICITY   = .0009825
INCLINATION    = 30.9991
RA_OF_ASC_NODE = 138.9448
ARG_OF_PERICENTER = 111.0674
MEAN_ANOMALY   = 249.1015

EPHEMERIS_TYPE = 0
CLASSIFICATION_TYPE = U
NORAD_CAT_ID   = 41337
ELEMENT_SET_NO = 999
REV_AT_EPOCH   = 54889
BSTAR          = .22497E-3
MEAN_MOTION_DOT = .3827E-4
MEAN_MOTION_DDOT = 0

CCSDS_OMM_VERS = 2.0
CREATION_DATE  = 
ORIGINATOR     = 

OBJECT_NAME    = HXMT (HUIYAN)
OBJECT_ID      = 2017-034A
CENTER_NAME    = EARTH
REF_FRAME      = TEME
TIME_SYSTEM    = UTC
MEAN_ELEMENT_THEORY = SGP/SGP4

EPOCH          = 2026-02-15T17:23:47.812416
MEAN_MOTION    = 15.17177564
ECCENTRICITY   = .003056
INCLINATION    = 43.0143
RA_OF_ASC_NODE = 138.7603
ARG_OF_PERICENTER = 95.9785
MEAN_ANOMALY   = 264.4547

EPHEMERIS_TYPE = 0
CLASSIFICATION_TYPE = U
NORAD_CAT_ID   = 42758
ELEMENT_SET_NO = 999
REV_AT_EPOCH   = 47920
BSTAR          = .38949E-3
MEAN_MOTION_DOT = .7736E-4
MEAN_MOTION_DDOT = 0

CCSDS_OMM_VERS = 2.0
CREATION_DATE  = 
ORIGINATOR     = 

OBJECT_NAME    = CZ-2C R/B
OBJECT_ID      = 2018-054D
CENTER_NAME    = EARTH
REF_FRAME      = TEME
TIME_SYSTEM    = UTC
MEAN_ELEMENT_THEORY = SGP/SGP4

EPOCH          = 2026-02-15T13:32:16.093824
MEAN_MOTION    = 16.02326119
ECCENTRICITY   = .001167
INCLINATION    = 35.1281
RA_OF_ASC_NODE = 94.4360
ARG_OF_PERICENTER = 94.0221
MEAN_ANOMALY   = 266.1855

EPHEMERIS_TYPE = 0
CLASSIFICATION_TYPE = U
NORAD_CAT_ID   = 43521
ELEMENT_SET_NO = 999
REV_AT_EPOCH   = 42534
BSTAR          = .92447E-3
MEAN_MOTION_DOT = .573997E-2
MEAN_MOTION_DDOT = .14777E-3

CCSDS_OMM_VERS = 2.0
CREATION_DATE  = 
ORIGINATOR     = 

OBJECT_NAME    = SAOCOM 1A
OBJECT_ID      = 2018-076A
CENTER_NAME    = EARTH
REF_FRAME      = TEME
TIME_SYSTEM    = UTC
MEAN_ELEMENT_THEORY = SGP/SGP4

EPOCH          = 2026-02-15T19:40:09.767136
MEAN_MOTION    = 14.82145898
ECCENTRICITY   = .0001382
INCLINATION    = 97.8873
RA_OF_ASC_NODE = 235.3017
ARG_OF_PERICENTER = 80.9468
MEAN_ANOMALY   = 279.1901

EPHEMERIS_TYPE = 0
CLASSIFICATION_TYPE = U
NORAD_CAT_ID   = 43641
ELEMENT_SET_NO = 999
REV_AT_EPOCH   = 39812
BSTAR          = .10755E-3
MEAN_MOTION_DOT = .804E-5
MEAN_MOTION_DDOT = 0

CCSDS_OMM_VERS = 2.0
CREATION_DATE  = 
ORIGINATOR     = 

OBJECT_NAME    = H-2A R/B
OBJECT_ID      = 2018-084L
CENTER_NAME    = EARTH
REF_FRAME      = TEME
TIME_SYSTEM    = UTC
MEAN_ELEMENT_THEORY = SGP/SGP4

EPOCH          = 2026-02-15T14:06:45.844704
MEAN_MOTION    = 15.40360025
ECCENTRICITY   = .0026355
INCLINATION    = 98.8754
RA_OF_ASC_NODE = 259.2686
ARG_OF_PERICENTER = 99.3978
MEAN_ANOMALY   = 261.0245

EPHEMERIS_TYPE = 0
CLASSIFICATION_TYPE = U
NORAD_CAT_ID   = 43682
ELEMENT_SET_NO = 999
REV_AT_EPOCH   = 40237
BSTAR          = .54386E-3
MEAN_MOTION_DOT = .22154E-3
MEAN_MOTION_DDOT = 0

CCSDS_OMM_VERS = 2.0
CREATION_DATE  = 
ORIGINATOR     = 

OBJECT_NAME    = SAOCOM 1B
OBJECT_ID      = 2020-059A
CENTER_NAME    = EARTH
REF_FRAME      = TEME
TIME_SYSTEM    = UTC
MEAN_ELEMENT_THEORY = SGP/SGP4

EPOCH          = 2026-02-15T20:25:11.069184
MEAN_MOTION    = 14.82145812
ECCENTRICITY   = .0001448
INCLINATION    = 97.8870
RA_OF_ASC_NODE = 234.4303
ARG_OF_PERICENTER = 84.8249
MEAN_ANOMALY   = 275.3129

EPHEMERIS_TYPE = 0
CLASSIFICATION_TYPE = U
NORAD_CAT_ID   = 46265
ELEMENT_SET_NO = 999
REV_AT_EPOCH   = 29551
BSTAR          = .2888E-4
MEAN_MOTION_DOT = .178E-5
MEAN_MOTION_DDOT = 0

CCSDS_OMM_VERS = 2.0
CREATION_DATE  = 
ORIGINATOR     = 

OBJECT_NAME    = CSS (TIANHE)
OBJECT_ID      = 2021-035A
CENTER_NAME    = EARTH
REF_FRAME      = TEME
TIME_SYSTEM    = UTC
MEAN_ELEMENT_THEORY = SGP/SGP4

EPOCH          = 2026-02-15T19:45:41.803200
MEAN_MOTION    = 15.59689428
ECCENTRICITY   = .0004117
INCLINATION    = 41.4684
RA_OF_ASC_NODE = 341.1131
ARG_OF_PERICENTER = 107.6125
MEAN_ANOMALY   = 252.5164

EPHEMERIS_TYPE = 0
CLASSIFICATION_TYPE = U
NORAD_CAT_ID   = 48274
ELEMENT_SET_NO = 999
REV_AT_EPOCH   = 27419
BSTAR          = .37318E-3
MEAN_MOTION_DOT = .30463E-3
MEAN_MOTION_DDOT = 0

CCSDS_OMM_VERS = 2.0
CREATION_DATE  = 
ORIGINATOR     = 

OBJECT_NAME    = COSMOS 2550
OBJECT_ID      = 2021-056A
CENTER_NAME    = EARTH
REF_FRAME      = TEME
TIME_SYSTEM    = UTC
MEAN_ELEMENT_THEORY = SGP/SGP4

EPOCH          = 2026-02-15T17:42:43.325280
MEAN_MOTION    = 15.33826474
ECCENTRICITY   = .0008396
INCLINATION    = 67.1426
RA_OF_ASC_NODE = 107.3331
ARG_OF_PERICENTER = 269.7676
MEAN_ANOMALY   = 90.2516

EPHEMERIS_TYPE = 0
CLASSIFICATION_TYPE = U
NORAD_CAT_ID   = 48865
ELEMENT_SET_NO = 999
REV_AT_EPOCH   = 26009
BSTAR          = .41028E-5
MEAN_MOTION_DOT = -.57E-6
MEAN_MOTION_DDOT = 0

CCSDS_OMM_VERS = 2.0
CREATION_DATE  = 
ORIGINATOR     = 

OBJECT_NAME    = CZ-2C R/B
OBJECT_ID      = 2022-058K
CENTER_NAME    = EARTH
REF_FRAME      = TEME
TIME_SYSTEM    = UTC
MEAN_ELEMENT_THEORY = SGP/SGP4

EPOCH          = 2026-02-15T06:07:21.733824
MEAN_MOTION    = 15.52620882
ECCENTRICITY   = .0042144
INCLINATION    = 50.1883
RA_OF_ASC_NODE = 73.5485
ARG_OF_PERICENTER = 105.3301
MEAN_ANOMALY   = 255.2332

EPHEMERIS_TYPE = 0
CLASSIFICATION_TYPE = U
NORAD_CAT_ID   = 52794
ELEMENT_SET_NO = 999
REV_AT_EPOCH   = 20664
BSTAR          = .57286E-3
MEAN_MOTION_DOT = .37013E-3
MEAN_MOTION_DDOT = 0

CCSDS_OMM_VERS = 2.0
CREATION_DATE  = 
ORIGINATOR     = 

OBJECT_NAME    = CZ-2C R/B
OBJECT_ID      = 2022-132E
CENTER_NAME    = EARTH
REF_FRAME      = TEME
TIME_SYSTEM    = UTC
MEAN_ELEMENT_THEORY = SGP/SGP4

EPOCH          = 2026-02-15T13:45:40.545216
MEAN_MOTION    = 15.59878807
ECCENTRICITY   = .0019281
INCLINATION    = 97.2956
RA_OF_ASC_NODE = 49.2552
ARG_OF_PERICENTER = 164.0293
MEAN_ANOMALY   = 196.1576

EPHEMERIS_TYPE = 0
CLASSIFICATION_TYPE = U
NORAD_CAT_ID   = 54039
ELEMENT_SET_NO = 999
REV_AT_EPOCH   = 18692
BSTAR          = .50121E-3
MEAN_MOTION_DOT = .40678E-3
MEAN_MOTION_DDOT = 0

CCSDS_OMM_VERS = 2.0
CREATION_DATE  = 
ORIGINATOR     = 

OBJECT_NAME    = GSLV R/B
OBJECT_ID      = 2022-138AN
CENTER_NAME    = EARTH
REF_FRAME      = TEME
TIME_SYSTEM    = UTC
MEAN_ELEMENT_THEORY = SGP/SGP4

EPOCH          = 2026-02-15T18:58:49.357920
MEAN_MOTION    = 14.96604501
ECCENTRICITY   = .0019918
INCLINATION    = 87.3870
RA_OF_ASC_NODE = 173.6893
ARG_OF_PERICENTER = 226.9124
MEAN_ANOMALY   = 133.0442

EPHEMERIS_TYPE = 0
CLASSIFICATION_TYPE = U
NORAD_CAT_ID   = 54149
ELEMENT_SET_NO = 999
REV_AT_EPOCH   = 18065
BSTAR          = .31381E-3
MEAN_MOTION_DOT = .3614E-4
MEAN_MOTION_DDOT = 0

CCSDS_OMM_VERS = 2.0
CREATION_DATE  = 
ORIGINATOR     = 

OBJECT_NAME    = XRISM
OBJECT_ID      = 2023-137A
CENTER_NAME    = EARTH
REF_FRAME      = TEME
TIME_SYSTEM    = UTC
MEAN_ELEMENT_THEORY = SGP/SGP4

EPOCH          = 2026-02-15T10:47:56.870592
MEAN_MOTION    = 15.11224789
ECCENTRICITY   = .00081912
INCLINATION    = 31.0028
RA_OF_ASC_NODE = 67.4751
ARG_OF_PERICENTER = 177.9279
MEAN_ANOMALY   = 182.1394

EPHEMERIS_TYPE = 0
CLASSIFICATION_TYPE = U
NORAD_CAT_ID   = 57800
ELEMENT_SET_NO = 999
REV_AT_EPOCH   = 13442
BSTAR          = .42647842E-3
MEAN_MOTION_DOT = .7449E-4
MEAN_MOTION_DDOT = 0

CCSDS_OMM_VERS = 2.0
CREATION_DATE  = 
ORIGINATOR     = 

OBJECT_NAME    = ACS3
OBJECT_ID      = 2024-077B
CENTER_NAME    = EARTH
REF_FRAME      = TEME
TIME_SYSTEM    = UTC
MEAN_ELEMENT_THEORY = SGP/SGP4

EPOCH          = 2026-02-15T17:52:23.949696
MEAN_MOTION    = 13.88679125
ECCENTRICITY   = .0047305
INCLINATION    = 97.2187
RA_OF_ASC_NODE = 352.7901
ARG_OF_PERICENTER = 142.2733
MEAN_ANOMALY   = 218.1763

EPHEMERIS_TYPE = 0
CLASSIFICATION_TYPE = U
NORAD_CAT_ID   = 59588
ELEMENT_SET_NO = 999
REV_AT_EPOCH   = 9115
BSTAR          = .18146E-1
MEAN_MOTION_DOT = .22089E-3
MEAN_MOTION_DDOT = 0

CCSDS_OMM_VERS = 2.0
CREATION_DATE  = 
ORIGINATOR     = 

OBJECT_NAME    = SZ-21 MODULE
OBJECT_ID      = 2025-246C
CENTER_NAME    = EARTH
REF_FRAME      = TEME
TIME_SYSTEM    = UTC
MEAN_ELEMENT_THEORY = SGP/SGP4

EPOCH          = 2026-02-15T04:52:02.803872
MEAN_MOTION    = 15.66814588
ECCENTRICITY   = .0002175
INCLINATION    = 41.4768
RA_OF_ASC_NODE = 341.5977
ARG_OF_PERICENTER = 296.5638
MEAN_ANOMALY   = 63.4980

EPHEMERIS_TYPE = 0
CLASSIFICATION_TYPE = U
NORAD_CAT_ID   = 66515
ELEMENT_SET_NO = 999
REV_AT_EPOCH   = 1454
BSTAR          = .37236E-3
MEAN_MOTION_DOT = .4035E-3
MEAN_MOTION_DDOT = 0

